{"fetched_at":"2026-03-29T16:36:15Z","count":15609,"tles":[{"name":"STARLINK-31739","line1":"1 59766U 24091P   26087.81300589  .00001871  00000+0  75285-4 0  9993","line2":"2 59766  53.1590 295.1305 0000925 101.5793 258.5311 15.30197213105974","category":"Starlink"}]}